ONEWEB-0509             
1 54127U 22138Q   23349.89303757  .00000035  00000+0  55731-4 0  9990
2 54127  87.9188 126.9591 0001412 107.1350 252.9938 13.19723970 56214
ONEWEB-0510             
1 54128U 22138R   23350.35308146 -.00000082  00000+0 -23416-3 0  9999
2 54128  87.9250  96.3278 0001962 118.3202 241.8129 13.20771558 59553
ONEWEB-0511             
1 54129U 22138S   23349.88988237  .00000107  00000+0  23579-3 0  9997
2 54129  87.9190 126.9610 0001203  94.8340 265.2930 13.19728061 57115
ONEWEB-0512             
1 54130U 22138T   23349.88198116  .00000059  00000+0  11588-3 0  9991
2 54130  87.9198 126.9641 0001146 120.0052 240.1195 13.19724121 57081
ONEWEB-0513             
1 54131U 22138U   23350.45929875  .00000090  00000+0  19183-3 0  9995
2 54131  87.9187 126.8493 0000773 109.5621 250.5595 13.19726991 57045
ONEWEB-0514             
1 54132U 22138V   23349.89777837  .00000009  00000+0 -10046-4 0  9992
2 54132  87.9191 126.9627 0001564 103.6645 256.4661 13.19725155 57108
ONEWEB-0515             
1 54133U 22138W   23350.34047563  .00000129  00000+0  28449-3 0  9998
2 54133  87.9198  96.3229 0002898 107.0976 253.0475 13.20765338 59545
ONEWEB-0516             
1 54134U 22138X   23349.94832075  .00000064  00000+0  12641-3 0  9998
2 54134  87.9197 126.9511 0001591 110.9320 249.1983 13.19727138 57119
